{
  "type": "Feature",
  "properties": {
    "exportedFrom": "https://overpass-api.de/api/interpreter",
    "query": "[out:json][timeout:25];relation(11917142);out geom;",
    "exportedOn": "2026-10-02",
    "copyright": "The data included in this document is from www.openstreetmap.org. The data is made available under ODbL."
  },
  "geometry": {
    "type": "Polygon",
    "coordinates": [
      [
        [126.9545954, 37.4617442],
        [126.9545779, 37.4618943],
        [126.954578, 37.4620688],
        [126.9546544, 37.4628225],
        [126.9546731, 37.4630237],
        [126.9547281, 37.4631919],
        [126.9547925, 37.4633462],
        [126.9551465, 37.4639615],
        [126.9551653, 37.4640403],
        [126.955192, 37.4641232],
        [126.9552096, 37.4642511],
        [126.9552216, 37.4644161],
        [126.955227, 37.4651314],
        [126.9554209, 37.465107],
        [126.9556304, 37.465107],
        [126.9559516, 37.4654371],
        [126.9561818, 37.4657066],
        [126.9551216, 37.4662612],
        [126.9551001, 37.4663591],
        [126.9553254, 37.4665646],
        [126.9545174, 37.4669866],
        [126.9546401, 37.4671403],
        [126.9543658, 37.4673211],
        [126.9541184, 37.467281],
        [126.9536303, 37.4681601],
        [126.9531651, 37.4684459],
        [126.9534775, 37.4687633],
        [126.9526584, 37.4692598],
        [126.9524357, 37.4690452],
        [126.9523219, 37.4691144],
        [126.9521412, 37.4689255],
        [126.9519929, 37.4689802],
        [126.9519204, 37.4689681],
        [126.9516199, 37.4686208],
        [126.9513411, 37.4683617],
        [126.9509893, 37.4681116],
        [126.9507982, 37.4679961],
        [126.9502993, 37.4677261],
        [126.9498734, 37.4674755],
        [126.9494371, 37.4672493],
        [126.9491436, 37.4670859],
        [126.9488055, 37.4669192],
        [126.9486776, 37.4668536],
        [126.9485654, 37.4668172],
        [126.9484218, 37.4667706],
        [126.9483854, 37.4667641],
        [126.9482188, 37.4667408],
        [126.9481834, 37.4667132],
        [126.9481152, 37.4665814],
        [126.9481205, 37.4664723],
        [126.9481339, 37.4663372],
        [126.9481594, 37.4662769],
        [126.9483944, 37.4658338],
        [126.9485078, 37.4655684],
        [126.9485956, 37.4651337],
        [126.948716, 37.4646039],
        [126.9487546, 37.4644262],
        [126.9488675, 37.4638902],
        [126.9490804, 37.4628969],
        [126.9491179, 37.4627369],
        [126.9492961, 37.4619304],
        [126.9493031, 37.4618893],
        [126.9493302, 37.4617625],
        [126.9493447, 37.4616851],
        [126.949359, 37.4615986],
        [126.9493617, 37.4614905],
        [126.949354, 37.461403],
        [126.9493266, 37.4612806],
        [126.9492084, 37.460943],
        [126.9491054, 37.4606691],
        [126.9490589, 37.4605456],
        [126.9488699, 37.4607359],
        [126.9487465, 37.4607572],
        [126.9486177, 37.4607401],
        [126.948489, 37.460655],
        [126.948474, 37.4606357],
        [126.9484193, 37.4605655],
        [126.9483817, 37.4604506],
        [126.9483388, 37.4602547],
        [126.9476567, 37.4598168],
        [126.9475548, 37.4597273],
        [126.9474904, 37.4596337],
        [126.9474475, 37.45954],
        [126.9474529, 37.4594378],
        [126.9478498, 37.4579729],
        [126.9479571, 37.4572235],
        [126.9480483, 37.4571],
        [126.9481234, 37.4565209],
        [126.948159, 37.4564387],
        [126.9481712, 37.4564223],
        [126.9482141, 37.4563652],
        [126.948314, 37.4562318],
        [126.9484433, 37.4560592],
        [126.9485256, 37.4559493],
        [126.9486751, 37.4557738],
        [126.948883, 37.4555408],
        [126.9492761, 37.4553742],
        [126.9495965, 37.4552129],
        [126.9498189, 37.4552295],
        [126.9498626, 37.4550918],
        [126.9499236, 37.4548998],
        [126.9500337, 37.4545233],
        [126.9502332, 37.4538813],
        [126.950333, 37.4527408],
        [126.9503298, 37.4527028],
        [126.9503243, 37.4526372],
        [126.9502928, 37.4525385],
        [126.9500722, 37.4520836],
        [126.9500158, 37.4519729],
        [126.9499763, 37.4518486],
        [126.9497986, 37.4509018],
        [126.9497878, 37.4507123],
        [126.9498455, 37.4501632],
        [126.9498496, 37.4499942],
        [126.9498415, 37.449803],
        [126.9498227, 37.4496288],
        [126.9497764, 37.4494331],
        [126.9496868, 37.4492088],
        [126.9493014, 37.4483971],
        [126.9491938, 37.4481401],
        [126.9491643, 37.4479931],
        [126.9491616, 37.4478398],
        [126.9491991, 37.4477163],
        [126.9492662, 37.44758],
        [126.9493274, 37.4475077],
        [126.9493815, 37.4474437],
        [126.9495049, 37.4473564],
        [126.9496766, 37.4472819],
        [126.9497966, 37.4472535],
        [126.9501848, 37.4471785],
        [126.9505225, 37.4471102],
        [126.9506408, 37.4470881],
        [126.9508427, 37.4470628],
        [126.951066, 37.4470679],
        [126.9512372, 37.4470899],
        [126.951377, 37.4471243],
        [126.9514404, 37.4471512],
        [126.9515018, 37.4471823],
        [126.9515799, 37.447223],
        [126.9516453, 37.4472712],
        [126.9517956, 37.4473936],
        [126.9519202, 37.4475443],
        [126.9519695, 37.447626],
        [126.9520044, 37.4477011],
        [126.9520208, 37.447761],
        [126.9520412, 37.4478949],
        [126.9520418, 37.4480622],
        [126.9521063, 37.4480766],
        [126.9528564, 37.4480693],
        [126.9527429, 37.4493226],
        [126.9529273, 37.4494574],
        [126.9529201, 37.449793],
        [126.9527642, 37.4497878],
        [126.9527644, 37.4505838],
        [126.9529307, 37.4505838],
        [126.9529378, 37.4508803],
        [126.9529472, 37.4512094],
        [126.952782, 37.4512097],
        [126.9527806, 37.4512679],
        [126.9526122, 37.4512706],
        [126.9526093, 37.4512258],
        [126.9524132, 37.4512253],
        [126.9526683, 37.4517847],
        [126.9526779, 37.4518057],
        [126.9527968, 37.4520663],
        [126.9533408, 37.453247],
        [126.953379, 37.4533843],
        [126.9535722, 37.4536798],
        [126.9536336, 37.4537948],
        [126.9539632, 37.4543046],
        [126.9541219, 37.4544835],
        [126.9545069, 37.4550249],
        [126.955211, 37.4559894],
        [126.9559465, 37.4568305],
        [126.956078, 37.4569646],
        [126.9561987, 37.4571243],
        [126.9562966, 37.4573308],
        [126.9563529, 37.457515],
        [126.9565473, 37.458257],
        [126.956609, 37.4584422],
        [126.9566627, 37.4585849],
        [126.9570838, 37.4591842],
        [126.9576858, 37.4595733],
        [126.9577477, 37.4596133],
        [126.9584502, 37.4600674],
        [126.9585098, 37.4601054],
        [126.959095, 37.4608182],
        [126.9588406, 37.4613156],
        [126.9587651, 37.4614633],
        [126.9588732, 37.4614376],
        [126.959175, 37.4613658],
        [126.959293, 37.4615872],
        [126.9593252, 37.4618597],
        [126.9593434, 37.4620513],
        [126.9592071, 37.4627965],
        [126.9598831, 37.4635885],
        [126.9597114, 37.4637758],
        [126.9600086, 37.4639419],
        [126.959765, 37.4642442],
        [126.9604946, 37.4647722],
        [126.9605954, 37.4649142],
        [126.9609312, 37.4653872],
        [126.9611517, 37.4657732],
        [126.9612239, 37.4659323],
        [126.9612188, 37.4661223],
        [126.961061, 37.4671952],
        [126.9606701, 37.4675808],
        [126.9600449, 37.4682079],
        [126.9590767, 37.4683558],
        [126.958091, 37.4684846],
        [126.957981, 37.467797],
        [126.9579448, 37.4673191],
        [126.9579072, 37.4670338],
        [126.9578965, 37.4668167],
        [126.9579005, 37.4664856],
        [126.95793, 37.4658661],
        [126.9579796, 37.4650422],
        [126.9580004, 37.4648735],
        [126.958034, 37.4648032],
        [126.958097, 37.4647537],
        [126.9581191, 37.4647463],
        [126.9581211, 37.4647074],
        [126.9581366, 37.4645877],
        [126.9581017, 37.4645148],
        [126.9581285, 37.4643801],
        [126.9579711, 37.464359],
        [126.9580185, 37.4641741],
        [126.9580419, 37.4640108],
        [126.9580252, 37.4639003],
        [126.9579741, 37.4637141],
        [126.9579468, 37.4636027],
        [126.9578891, 37.4633723],
        [126.9578107, 37.4630976],
        [126.957745, 37.4629231],
        [126.9576732, 37.4627815],
        [126.9575773, 37.4626765],
        [126.9571602, 37.4622664],
        [126.9568434, 37.4619449],
        [126.9567178, 37.4618187],
        [126.956662, 37.46173],
        [126.9566045, 37.4616157],
        [126.9565689, 37.4615282],
        [126.9565144, 37.4614126],
        [126.9563951, 37.4613689],
        [126.9563294, 37.4613435],
        [126.9562358, 37.4613317],
        [126.9561098, 37.461337],
        [126.9559353, 37.4613648],
        [126.9556763, 37.4614216],
        [126.9554053, 37.4614557],
        [126.9551546, 37.4614834],
        [126.9548448, 37.4615558],
        [126.9546946, 37.4616292],
        [126.9545954, 37.4617442]
      ]
    ]
  }
}
