{
  "type": "FeatureCollection",
  "exportedFrom": "https://overpass-api.de/api/interpreter",
  "query": "[out:json][timeout:25];(way(id:193893586);way(id:1485386282);way(id:1469808348);way(id:185936754);way(id:386891065);way(id:320671088);way(id:320671915);way(id:320671917);way(id:320671919);way(id:320671921);way(id:320667500);way(id:347802748);way(id:482220677);way(id:383390147););out geom;",
  "exportedOn": "2026-10-03",
  "copyright": "The data included in this document is from www.openstreetmap.org. The data is made available under ODbL.",
  "features": [
    {
      "type": "Feature",
      "id": "way/185936754",
      "properties": {
        "name": "대운동장"
      },
      "geometry": {
        "type": "Polygon",
        "coordinates": [
          [
            [126.9504795, 37.4643068],
            [126.9504544, 37.4642848],
            [126.9503881, 37.4642304],
            [126.9503187, 37.4641787],
            [126.950251, 37.4641323],
            [126.9501753, 37.464086],
            [126.950104, 37.4640474],
            [126.9500394, 37.4640219],
            [126.95, 37.4640115],
            [126.9499728, 37.4640043],
            [126.9499319, 37.4639993],
            [126.9498767, 37.4639974],
            [126.9498216, 37.4639998],
            [126.9497544, 37.4640076],
            [126.9496891, 37.4640195],
            [126.9496245, 37.4640384],
            [126.9495657, 37.4640595],
            [126.9494981, 37.464092],
            [126.949453, 37.4641193],
            [126.9494081, 37.4641511],
            [126.9493947, 37.4641395],
            [126.9493635, 37.4641635],
            [126.9493228, 37.4642054],
            [126.9492978, 37.4642335],
            [126.9492737, 37.4642633],
            [126.9492576, 37.4642847],
            [126.9492392, 37.4643125],
            [126.9492248, 37.464336],
            [126.9492141, 37.4643586],
            [126.949204, 37.464386],
            [126.9491982, 37.4644092],
            [126.9491571, 37.4645886],
            [126.9491577, 37.464599],
            [126.94957, 37.4650615],
            [126.9499573, 37.4654955],
            [126.9500341, 37.4655803],
            [126.9503645, 37.4655526],
            [126.9504265, 37.4655436],
            [126.9504943, 37.4655281],
            [126.9505526, 37.4655087],
            [126.9505985, 37.4654927],
            [126.9505958, 37.4654879],
            [126.9506387, 37.4654694],
            [126.9506754, 37.4654474],
            [126.9507123, 37.465425],
            [126.9507474, 37.4654017],
            [126.950794, 37.4653685],
            [126.9508281, 37.4653393],
            [126.9508551, 37.4653131],
            [126.9508816, 37.4652849],
            [126.9509001, 37.4652554],
            [126.9509176, 37.4652213],
            [126.950943, 37.4651676],
            [126.9509511, 37.4651436],
            [126.9509555, 37.4651089],
            [126.9509581, 37.4650701],
            [126.9509544, 37.4650326],
            [126.9509466, 37.465],
            [126.9509427, 37.4649814],
            [126.9509249, 37.4649304],
            [126.9509025, 37.4648774],
            [126.9508796, 37.4648237],
            [126.9508558, 37.4647739],
            [126.9508272, 37.4647238],
            [126.9507965, 37.4646746],
            [126.9507717, 37.4646348],
            [126.9507684, 37.4646302],
            [126.9508412, 37.4645895],
            [126.9507777, 37.464518],
            [126.9507857, 37.4645135],
            [126.9506323, 37.4643408],
            [126.9506245, 37.4643453],
            [126.9505535, 37.4642654],
            [126.9504795, 37.4643068]
          ]
        ]
      }
    },
    {
      "type": "Feature",
      "id": "way/193893586",
      "properties": {
        "name": "버들골 풍산마당"
      },
      "geometry": {
        "type": "Polygon",
        "coordinates": [
          [
            [126.9552298, 37.4584994],
            [126.9553613, 37.4585676],
            [126.9555195, 37.4585804],
            [126.9556751, 37.4585675],
            [126.9557851, 37.4584824],
            [126.9557905, 37.4583312],
            [126.9557153, 37.458246],
            [126.9556081, 37.4581992],
            [126.9555088, 37.4581736],
            [126.9553855, 37.4581779],
            [126.9552835, 37.4582119],
            [126.9551816, 37.4582652],
            [126.9551629, 37.458346],
            [126.9551601, 37.4584334],
            [126.9552298, 37.4584994]
          ]
        ]
      }
    },
    {
      "type": "Feature",
      "id": "way/320667500",
      "properties": {
        "name": "공과대학 테니스장 A"
      },
      "geometry": {
        "type": "Polygon",
        "coordinates": [
          [
            [126.949594, 37.4555622],
            [126.9494994, 37.4558582],
            [126.9493116, 37.4558257],
            [126.949402, 37.455528],
            [126.949594, 37.4555622]
          ]
        ]
      }
    },
    {
      "type": "Feature",
      "id": "way/320671088",
      "properties": {
        "name": "테니스장 1-3"
      },
      "geometry": {
        "type": "Polygon",
        "coordinates": [
          [
            [126.9542288, 37.4659454],
            [126.9547237, 37.4657662],
            [126.9545143, 37.465402],
            [126.9540195, 37.4655812],
            [126.9542288, 37.4659454]
          ]
        ]
      }
    },
    {
      "type": "Feature",
      "id": "way/320671915",
      "properties": {
        "name": "테니스장 4-6"
      },
      "geometry": {
        "type": "Polygon",
        "coordinates": [
          [
            [126.9538502, 37.4652839],
            [126.9543375, 37.4651037],
            [126.954506, 37.4653907],
            [126.9540188, 37.4655709],
            [126.9538502, 37.4652839]
          ]
        ]
      }
    },
    {
      "type": "Feature",
      "id": "way/320671917",
      "properties": {
        "name": "테니스장 7-8"
      },
      "geometry": {
        "type": "Polygon",
        "coordinates": [
          [
            [126.953938, 37.4652396],
            [126.9543333, 37.4650908],
            [126.9541637, 37.4648071],
            [126.9537684, 37.4649559],
            [126.953938, 37.4652396]
          ]
        ]
      }
    },
    {
      "type": "Feature",
      "id": "way/320671919",
      "properties": {
        "name": "테니스장 9-11"
      },
      "geometry": {
        "type": "Polygon",
        "coordinates": [
          [
            [126.9537438, 37.466077],
            [126.9542028, 37.4659111],
            [126.9540248, 37.4656009],
            [126.9535658, 37.4657668],
            [126.9537438, 37.466077]
          ]
        ]
      }
    },
    {
      "type": "Feature",
      "id": "way/320671921",
      "properties": {
        "name": "테니스장 12-14"
      },
      "geometry": {
        "type": "Polygon",
        "coordinates": [
          [
            [126.9535197, 37.4657535],
            [126.9539972, 37.4655782],
            [126.9538274, 37.4652902],
            [126.9533503, 37.4654719],
            [126.9535197, 37.4657535]
          ]
        ]
      }
    },
    {
      "type": "Feature",
      "id": "way/347802748",
      "properties": {
        "name": "공과대학 테니스장 B&C"
      },
      "geometry": {
        "type": "Polygon",
        "coordinates": [
          [
            [126.9497348, 37.4559096],
            [126.9500264, 37.4559613],
            [126.950117, 37.4556392],
            [126.9498253, 37.4555875],
            [126.9497348, 37.4559096]
          ]
        ]
      }
    },
    {
      "type": "Feature",
      "id": "way/383390147",
      "properties": {
        "name": "자하연"
      },
      "geometry": {
        "type": "Polygon",
        "coordinates": [
          [
            [126.951863, 37.4606925],
            [126.9519998, 37.4605712],
            [126.9522358, 37.460503],
            [126.9523243, 37.4606159],
            [126.9519783, 37.4608118],
            [126.951863, 37.4606925]
          ]
        ]
      }
    },
    {
      "type": "Feature",
      "id": "way/386891065",
      "properties": {
        "name": null
      },
      "geometry": {
        "type": "Polygon",
        "coordinates": [
          [
            [126.9505443, 37.4668243],
            [126.9504223, 37.4675212],
            [126.9507963, 37.4676568],
            [126.9510446, 37.4677319],
            [126.9511857, 37.4674794],
            [126.9513533, 37.4671727],
            [126.9513614, 37.4670598],
            [126.9512029, 37.466892],
            [126.9505443, 37.4668243]
          ]
        ]
      }
    },
    {
      "type": "Feature",
      "id": "way/482220677",
      "properties": {
        "name": null
      },
      "geometry": {
        "type": "Polygon",
        "coordinates": [
          [
            [126.9586584, 37.4622727],
            [126.9586983, 37.462057],
            [126.9587788, 37.4616228],
            [126.9588226, 37.4616279],
            [126.9594033, 37.4616957],
            [126.9592828, 37.4623456],
            [126.9590764, 37.4623215],
            [126.9586584, 37.4622727]
          ]
        ]
      }
    },
    {
      "type": "Feature",
      "id": "way/1469808348",
      "properties": {
        "name": null
      },
      "geometry": {
        "type": "Polygon",
        "coordinates": [
          [
            [126.9507777, 37.464518],
            [126.9507857, 37.4645135],
            [126.9506323, 37.4643408],
            [126.9506245, 37.4643453],
            [126.9505535, 37.4642654],
            [126.9504795, 37.4643068],
            [126.9504587, 37.4643184],
            [126.9507464, 37.4646425],
            [126.9507684, 37.4646302],
            [126.9508412, 37.4645895],
            [126.9507777, 37.464518]
          ]
        ]
      }
    },
    {
      "type": "Feature",
      "id": "way/1485386282",
      "properties": {
        "name": "데이터사이언스대학원"
      },
      "geometry": {
        "type": "Polygon",
        "coordinates": [
          [
            [126.9510902, 37.4572783],
            [126.9511308, 37.4569424],
            [126.9513463, 37.4569646],
            [126.9513076, 37.4572977],
            [126.9510902, 37.4572783]
          ]
        ]
      }
    }
  ]
}
