{
  "type": "Feature",
  "properties": {
    "exportedFrom": "https://overpass-api.de/api/interpreter",
    "query": "[out:json][timeout:25][bbox:37.4470628,126.9474475,37.4692598,126.9612239];way[\"highway\"~\"^(trunk|primary|secondary|tertiary|unclassified|residential|service|living_street|road|trunk_link|primary_link|secondary_link|tertiary_link)$\"];out geom;",
    "exportedOn": "2026-10-02",
    "copyright": "The data included in this document is from www.openstreetmap.org. The data is made available under ODbL.",
    "description": "Route 41946 from 정문 around the loop back to 정문, traced along the roads the query gave, through the campus map's stops of its route 61 in their order."
  },
  "geometry": {
    "type": "LineString",
    "coordinates": [
      [126.9484557, 37.4656903],
      [126.9485078, 37.4655684],
      [126.9485956, 37.4651337],
      [126.948716, 37.4646039],
      [126.9487546, 37.4644262],
      [126.9488675, 37.4638902],
      [126.9490804, 37.4628969],
      [126.9491155, 37.4627469],
      [126.9491179, 37.4627369],
      [126.9492961, 37.4619304],
      [126.9493031, 37.4618893],
      [126.9493302, 37.4617625],
      [126.9493447, 37.4616851],
      [126.949359, 37.4615986],
      [126.9493617, 37.4614905],
      [126.949354, 37.461403],
      [126.9493266, 37.4612806],
      [126.9492084, 37.460943],
      [126.9490589, 37.4605456],
      [126.949016, 37.4604258],
      [126.9489861, 37.4603424],
      [126.9488293, 37.4599049],
      [126.9487548, 37.4597141],
      [126.9487314, 37.4596217],
      [126.9487207, 37.4595376],
      [126.9487213, 37.4594257],
      [126.9487455, 37.4593202],
      [126.9488152, 37.4590168],
      [126.9489538, 37.4584746],
      [126.9489892, 37.458336],
      [126.9490168, 37.458215],
      [126.9490861, 37.4579331],
      [126.9491441, 37.4577121],
      [126.949208, 37.4574685],
      [126.9492333, 37.4573567],
      [126.9492691, 37.4571981],
      [126.9492959, 37.4570792],
      [126.949411, 37.4565952],
      [126.9494379, 37.4564832],
      [126.9495574, 37.456051],
      [126.9497216, 37.4555249],
      [126.9498189, 37.4552295],
      [126.9498626, 37.4550918],
      [126.9498992, 37.4549765],
      [126.9499236, 37.4548998],
      [126.9500337, 37.4545233],
      [126.9501653, 37.4540996],
      [126.9502332, 37.4538813],
      [126.9502614, 37.4535594],
      [126.950333, 37.4527408],
      [126.9503298, 37.4527028],
      [126.9503243, 37.4526372],
      [126.9502928, 37.4525385],
      [126.9500722, 37.4520836],
      [126.9500158, 37.4519729],
      [126.9499763, 37.4518486],
      [126.9497986, 37.4509018],
      [126.9497878, 37.4507123],
      [126.9498455, 37.4501632],
      [126.9498496, 37.4499942],
      [126.9498463, 37.4499165],
      [126.9498415, 37.449803],
      [126.9498227, 37.4496288],
      [126.9497764, 37.4494331],
      [126.9496868, 37.4492088],
      [126.9493014, 37.4483971],
      [126.9491938, 37.4481401],
      [126.9491643, 37.4479931],
      [126.9491616, 37.4478398],
      [126.9491991, 37.4477163],
      [126.9492662, 37.44758],
      [126.9493274, 37.4475077],
      [126.9493815, 37.4474437],
      [126.9495049, 37.4473564],
      [126.9496766, 37.4472819],
      [126.9497966, 37.4472535],
      [126.9501848, 37.4471785],
      [126.9505346, 37.4471081],
      [126.9506408, 37.4470881],
      [126.9508427, 37.4470628],
      [126.951066, 37.4470679],
      [126.9512372, 37.4470899],
      [126.951377, 37.4471243],
      [126.9514404, 37.4471512],
      [126.9515018, 37.4471823],
      [126.9515799, 37.447223],
      [126.9516453, 37.4472712],
      [126.9517956, 37.4473936],
      [126.9519202, 37.4475443],
      [126.9519695, 37.447626],
      [126.9520044, 37.4477011],
      [126.9520208, 37.447761],
      [126.9520412, 37.4478949],
      [126.9520418, 37.4480622],
      [126.9520375, 37.44824],
      [126.9520292, 37.4485673],
      [126.9520163, 37.4488],
      [126.9520133, 37.4488548],
      [126.9520127, 37.4489044],
      [126.9520078, 37.4490752],
      [126.9519956, 37.4492734],
      [126.951986, 37.4495449],
      [126.9519772, 37.4499731],
      [126.9519688, 37.4502886],
      [126.9519856, 37.4504445],
      [126.9519922, 37.4504775],
      [126.9520708, 37.4506074],
      [126.9522076, 37.4508033],
      [126.9523014, 37.4509651],
      [126.9523146, 37.4509951],
      [126.9523517, 37.4510578],
      [126.9524132, 37.4512253],
      [126.9524496, 37.4513051],
      [126.9524598, 37.4513275],
      [126.952657, 37.4517599],
      [126.9526683, 37.4517847],
      [126.9526779, 37.4518057],
      [126.9527968, 37.4520663],
      [126.9533408, 37.453247],
      [126.953379, 37.4533843],
      [126.9535722, 37.4536798],
      [126.9536336, 37.4537948],
      [126.9539322, 37.4542057],
      [126.9539383, 37.4542142],
      [126.9539905, 37.4542914],
      [126.9541219, 37.4544835],
      [126.9545069, 37.4550249],
      [126.955211, 37.4559894],
      [126.9552224, 37.4560024],
      [126.9559465, 37.4568305],
      [126.956078, 37.4569646],
      [126.9561987, 37.4571243],
      [126.9562966, 37.4573308],
      [126.9563529, 37.457515],
      [126.9565473, 37.458257],
      [126.956609, 37.4584422],
      [126.9566627, 37.4585849],
      [126.9570838, 37.4591842],
      [126.9571683, 37.4593279],
      [126.9572072, 37.4594695],
      [126.9572098, 37.4595972],
      [126.9571817, 37.4597037],
      [126.9571401, 37.4598272],
      [126.9570958, 37.4599528],
      [126.9570018, 37.4601419],
      [126.9569106, 37.4602881],
      [126.9567328, 37.460618],
      [126.9566182, 37.4608232],
      [126.9565526, 37.4609405],
      [126.956518, 37.4609957],
      [126.9564868, 37.461037],
      [126.9564025, 37.461136],
      [126.9563566, 37.4611778],
      [126.9562886, 37.4612249],
      [126.9562284, 37.4612588],
      [126.9561246, 37.4613039],
      [126.9559353, 37.4613648],
      [126.9556763, 37.4614216],
      [126.9554053, 37.4614557],
      [126.9551546, 37.4614834],
      [126.9548448, 37.4615558],
      [126.9546946, 37.4616292],
      [126.9545954, 37.4617442],
      [126.9545779, 37.4618943],
      [126.954578, 37.4620688],
      [126.9546544, 37.4628225],
      [126.9546731, 37.4630237],
      [126.9547281, 37.4631919],
      [126.9547925, 37.4633462],
      [126.9551465, 37.4639615],
      [126.9551653, 37.4640403],
      [126.955192, 37.4641232],
      [126.9551967, 37.4641576],
      [126.9552096, 37.4642511],
      [126.9552216, 37.4644161],
      [126.955227, 37.4651314],
      [126.9552297, 37.4653134],
      [126.9552183, 37.4654148],
      [126.9551995, 37.4655202],
      [126.9551707, 37.4656035],
      [126.9551092, 37.4656918],
      [126.9550305, 37.4657865],
      [126.9549152, 37.4658837],
      [126.954662, 37.46604],
      [126.9545914, 37.4660816],
      [126.9545464, 37.466108],
      [126.9544686, 37.466149],
      [126.9542594, 37.4662065],
      [126.9541032, 37.4662248],
      [126.9539892, 37.4662252],
      [126.9536191, 37.4661687],
      [126.9533927, 37.4661347],
      [126.9532565, 37.4661142],
      [126.9528447, 37.4660451],
      [126.9527393, 37.4660319],
      [126.9525595, 37.4660074],
      [126.9524188, 37.4660015],
      [126.952149, 37.4659959],
      [126.9520088, 37.465993],
      [126.9518521, 37.4659877],
      [126.9517283, 37.4659835],
      [126.9514355, 37.4659643],
      [126.9512872, 37.4659547],
      [126.951091, 37.465952],
      [126.9508396, 37.465947],
      [126.9506928, 37.4659393],
      [126.9505351, 37.4659196],
      [126.9504006, 37.4658946],
      [126.9499406, 37.4658034],
      [126.9496676, 37.4657492],
      [126.9495229, 37.4657204],
      [126.9491296, 37.4656412],
      [126.9487509, 37.4655816],
      [126.9485078, 37.4655684],
      [126.9484557, 37.4656903]
    ]
  }
}
